ONEWEB-0055             
1 45443U 20020V   22308.63419982  .00000185  00000+0  48499-3 0  9991
2 45443  87.8797 283.4912 0001747  93.5072 266.6256 13.11414927129538
ONEWEB-0093             
1 45444U 20020W   22308.38062523  .00000591  00000+0  16317-2 0  9993
2 45444  87.8789 283.5530 0001693  93.7107 266.4214 13.11418426129561
ONEWEB-0029             
1 45445U 20020X   22308.40193138  .00000278  00000+0  74813-3 0  9992
2 45445  87.8787 283.5374 0001456  86.2261 273.9033 13.11415906129541
ONEWEB-0068             
1 45446U 20020Y   22308.67793859  .00000157  00000+0  40713-3 0  9996
2 45446  87.8790 283.4897 0001566  97.7535 262.3771 13.11420017129526
ONEWEB-0046             
1 45447U 20020Z   22308.67459968  .00000046  00000+0  94768-4 0  9994
2 45447  87.8789 283.5015 0001797  81.9245 278.2086 13.11418442129532
ONEWEB-0063             
1 45448U 20020AA  22308.39857638  .00000316  00000+0  85517-3 0  9991
2 45448  87.8782 283.5361 0001938  77.5312 282.6032 13.11414894129585
ONEWEB-0019             
1 45449U 20020AB  22308.67907572  .00000128  00000+0  32476-3 0  9993
2 45449  87.8793 283.4879 0001974  88.3861 271.7493 13.11419288129469
ONEWEB-0094             
1 45450U 20020AC  22308.40541245  .00000071  00000+0  15020-3 0  9990
2 45450  87.9175 268.2193 0002108  85.0795 275.0577 13.17651885132377
ONEWEB-0087             
1 45451U 20020AD  22308.86534069  .00000097  00000+0  23792-3 0  9990
2 45451  87.8726 283.4783 0001349  86.8683 273.2600 13.11412644129537
ONEWEB-0082             
1 45452U 20020AE  22308.63867174 -.00000114  00000+0 -35709-3 0  9995
2 45452  87.8783 283.4621 0001418 103.1833 256.9453 13.11417798129594
ONEWEB-0050             
1 45453U 20020AF  22308.65104327  .00006124  00000+0  51347-3 0  9993
2 45453  87.5456 196.6461 0029338  62.4015 298.0191 14.97891261143257
ONEWEB-0034             
1 45454U 20020AG  22308.42773147 -.00000433  00000+0 -12563-2 0  9996
2 45454  87.8786 283.5242 0001613  84.6843 275.4469 13.11418487129487
ONEWEB-0060             
1 45455U 20020AH  22308.66447341 -.00001018  00000+0 -29086-2 0  9995
2 45455  87.8792 283.4898 0001719  84.3975 275.7349 13.11419657129470
ONEWEB-0086             
1 45456U 20020AJ  22308.68356022  .00000458  00000+0  12557-2 0  9993
2 45456  87.8789 283.4763 0001585  91.0375 269.0934 13.11420374129539
ONEWEB-0088             
1 45457U 20020AK  22308.65887405 -.00000539  00000+0 -15556-2 0  9999
2 45457  87.8785 283.4891 0001639  80.7812 279.3501 13.11417323129465
ONEWEB-0102             
1 47258U 20100A   22308.40172698 -.00000078  00000+0 -25185-3 0  9991
2 47258  87.8955 252.9973 0002019  88.9763 271.1597 13.12443940 91485
ONEWEB-0109             
1 47259U 20100B   22308.56479796 -.00000363  00000+0 -10447-2 0  9999
2 47259  87.8917 253.0193 0001840  79.8556 280.2780 13.12442829 91334
ONEWEB-0110             
1 47260U 20100C   22308.81681189 -.00000124  00000+0 -38117-3 0  9990
2 47260  87.8916 252.9431 0001843  88.3093 271.8246 13.12443519 91534
ONEWEB-0111             
1 47261U 20100D   22308.54362947  .00000299  00000+0  79687-3 0  9997
2 47261  87.8914 252.9804 0001973  86.0323 274.1031 13.12443561 91335
ONEWEB-0114             
1 47262U 20100E   22308.57537241 -.00000775  00000+0 -21886-2 0  9990
2 47262  87.8917 252.9974 0002509  83.6931 276.4483 13.12442816 91294
ONEWEB-0117             
1 47263U 20100F   22308.56690179 -.00000601  00000+0 -17061-2 0  9998
2 47263  87.8920 253.0233 0001736  80.8548 279.2777 13.12441219 91308
ONEWEB-0118             
1 47264U 20100G   22308.59870053  .00000219  00000+0  57223-3 0  9991
2 47264  87.8918 252.9697 0002607  72.0389 288.1023 13.12443560 91508
ONEWEB-0119             
1 47265U 20100H   22308.54997137  .00000099  00000+0  23942-3 0  9997
2 47265  87.8959 252.9688 0001901  78.2422 281.8919 13.12442763 91470
ONEWEB-0120             
1 47266U 20100J   22308.35086488 -.00000307  00000+0 -88884-3 0  9995
2 47266  87.8886 253.1071 0002249  78.4593 281.6787 13.12448214 91474
ONEWEB-0121             
1 47267U 20100K   22308.56268982 -.00000276  00000+0 -80285-3 0  9992
2 47267  87.8855 253.0583 0001681  79.8408 280.2910 13.12440295 91415
ONEWEB-0122             
1 47268U 20100L   22308.55631801 -.00000092  00000+0 -29118-3 0  9990
2 47268  87.8916 253.0003 0001965  84.7812 275.3540 13.12443165 91323
ONEWEB-0123             
1 47269U 20100M   22308.55210060  .00000070  00000+0  16047-3 0  9992
2 47269  87.8947 252.9798 0001953  78.3071 281.8276 13.12440994 91460
ONEWEB-0124             
1 47270U 20100N   22308.53940337  .00000470  00000+0  12709-2 0  9993
2 47270  87.8914 253.0120 0001482  81.6022 278.5274 13.12441902 91345
ONEWEB-0125             
1 47271U 20100P   22308.36361917  .00000188  00000+0  48804-3 0  9998
2 47271  87.8914 253.0617 0002019  79.4645 280.6711 13.12443075 91387
ONEWEB-0126             
1 47272U 20100Q   22308.39007808  .00000329  00000+0  87780-3 0  9991
2 47272  87.8916 253.0525 0002116  82.5177 277.6192 13.12444509 91451
ONEWEB-0127             
1 47273U 20100R   22308.58172408  .00005928  00000+0  16438-1 0  9992
2 47273  87.8954 252.9523 0001995  92.1210 268.0147 13.12414738 91500
ONEWEB-0128             
1 47274U 20100S   22308.60293541  .00000358  00000+0  96034-3 0  9992
2 47274  87.8925 252.9734 0001686  93.1483 266.9838 13.12443688 91525
ONEWEB-0129             
1 47275U 20100T   22308.58386200 -.00000288  00000+0 -83480-3 0  9990
2 47275  87.8915 253.0296 0003573  88.8636 271.2902 13.12441932 91451
ONEWEB-0130             
1 47276U 20100U   22308.60928386  .00000774  00000+0  21171-2 0  9997
2 47276  87.8915 253.0167 0001848  82.9803 277.1536 13.12441770 91428
ONEWEB-0131             
1 47277U 20100V   22308.60717021  .00000406  00000+0  10945-2 0  9999
2 47277  87.8914 252.9626 0001680  81.6705 278.4613 13.12441658 91466
ONEWEB-0132             
1 47278U 20100W   22308.56054930 -.00000259  00000+0 -75620-3 0  9998
2 47278  87.8915 252.9727 0002175  81.8005 278.3370 13.12442233 91352
ONEWEB-0133             
1 47279U 20100X   22308.34877325 -.00000318  00000+0 -91916-3 0  9998
2 47279  87.8951 253.0149 0001792  79.7882 280.3449 13.12441165 91483
ONEWEB-0134             
1 47280U 20100Y   22308.62198808  .00000241  00000+0  63469-3 0  9998
2 47280  87.8930 252.9723 0001902  89.7949 270.3398 13.12442535 91491
ONEWEB-0135             
1 47281U 20100Z   22308.59021985 -.00000033  00000+0 -12696-3 0  9993
2 47281  87.8947 252.9527 0001923  84.2918 275.8430 13.12444445 91513
ONEWEB-0136             
1 47282U 20100AA  22308.61140183  .00000484  00000+0  13103-2 0  9990
2 47282  87.8915 253.0250 0002187 106.2051 253.9318 13.12442920 91440
ONEWEB-0137             
1 47283U 20100AB  22308.57115314 -.00000377  00000+0 -10820-2 0  9990
2 47283  87.8915 252.9967 0002078  79.7223 280.4139 13.12443566 91340
ONEWEB-0138             
1 47284U 20100AC  22308.54786457  .00000461  00000+0  12450-2 0  9993
2 47284  87.8915 253.0127 0001954  84.4296 275.7055 13.12441685 91429
ONEWEB-0139             
1 47285U 20100AD  22308.36786746  .00000287  00000+0  76159-3 0  9998
2 47285  87.8914 253.0871 0001753  88.0471 272.0858 13.12444746 91474
ONEWEB-0140             
1 47286U 20100AE  22308.54151319  .00000342  00000+0  91544-3 0  9998
2 47286  87.8915 252.9864 0001883  85.4935 274.6409 13.12443836 91464
ONEWEB-0141             
1 47287U 20100AF  22308.56372617 -.00000308  00000+0 -89297-3 0  9993
2 47287  87.8917 252.9819 0002196  75.0965 285.0406 13.12439418 91456
ONEWEB-0142             
1 47288U 20100AG  22308.40281474 -.00000114  00000+0 -35359-3 0  9992
2 47288  87.8918 253.0634 0002109  79.5412 280.5954 13.12436827 91421
ONEWEB-0143             
1 47289U 20100AH  22308.58595753 -.00000640  00000+0 -18151-2 0  9994
2 47289  87.8911 252.9903 0001784  79.0412 281.0917 13.12443916 91427
ONEWEB-0144             
1 47290U 20100AJ  22308.55845120 -.00000165  00000+0 -49393-3 0  9994
2 47290  87.8920 253.0090 0001954  87.7507 272.3846 13.12442697 91348
ONEWEB-0145             
1 47291U 20100AK  22308.83375327  .00000355  00000+0  95218-3 0  9999
2 47291  87.8950 252.9180 0001983  79.4189 280.7162 13.12442798 91577
ONEWEB-0146             
1 47292U 20100AL  22308.60081702  .00000291  00000+0  77253-3 0  9994
2 47292  87.8921 253.0101 0001427  66.6816 293.4462 13.12443392 91451
ONEWEB-0147             
1 47293U 20100AM  22308.79775077 -.00000293  00000+0 -85037-3 0  9993
2 47293  87.8912 252.9386 0002073  91.8473 268.2893 13.12443739 91376
ONEWEB-0115             
1 48042U 21025A   22308.48444004 -.00000264  00000+0 -75683-3 0  9996
2 48042  87.9057 222.6044 0001492  73.8353 286.2941 13.13467255 80222
ONEWEB-0152             
1 48043U 21025B   22308.49715601 -.00000259  00000+0 -74288-3 0  9996
2 48043  87.9085 222.5851 0001668  79.2147 280.9169 13.13468562 80185
ONEWEB-0153             
1 48044U 21025C   22308.47386679 -.00000105  00000+0 -32133-3 0  9997
2 48044  87.9057 222.5834 0001843  78.0810 282.0526 13.13467279 80178
ONEWEB-0154             
1 48045U 21025D   22308.31939476 -.00000046  00000+0 -16222-3 0  9995
2 48045  87.9004 222.6729 0001762  77.7011 282.4315 13.13467334 80110
ONEWEB-0116             
1 48046U 21025E   22308.51406584  .00000120  00000+0  29439-3 0  9992
2 48046  87.9022 222.6237 0001505  66.6780 293.4507 13.13472810 80288
ONEWEB-0150             
1 48047U 21025F   22308.48658626 -.00000271  00000+0 -77754-3 0  9997
2 48047  87.9053 222.6009 0002047  73.8980 286.2374 13.13468915 80175
ONEWEB-0107             
1 48048U 21025G   22308.26016895 -.00000219  00000+0 -63506-3 0  9992
2 48048  87.9051 222.6450 0002218  78.5721 281.5657 13.13467040 80124
ONEWEB-0101             
1 48049U 21025H   22308.52889730  .00000293  00000+0  76666-3 0  9999
2 48049  87.9051 222.5957 0001980  80.7074 279.4279 13.13472354 80138
